{
  "type": "FeatureCollection",
  "features": [
    {
      "type": "Feature",
      "properties": {
        "norad_id": 46805,
        "name": "COSMOS 2547 (705K)",
        "group": "glo-ops",
        "lat": -33.69839464070658,
        "lon": -179.6320928586283,
        "alt_km": 19135.377285433446,
        "timestamp": "2025-12-08T08:59:01.026717+00:00",
        "meta_object_name": "COSMOS 2547 (705K)",
        "meta_object_id": "2020-075A",
        "meta_epoch": "2025-12-07T11:38:43.890144",
        "meta_mean_motion": 2.13099936,
        "meta_eccentricity": 0.00062259,
        "meta_inclination": 64.5959,
        "meta_ra_of_asc_node": 198.872,
        "meta_arg_of_pericenter": 228.8707,
        "meta_mean_anomaly": 131.1578,
        "meta_ephemeris_type": 0,
        "meta_classification_type": "U",
        "meta_norad_cat_id": 46805,
        "meta_element_set_no": 999,
        "meta_rev_at_epoch": 3982,
        "meta_bstar": 0,
        "meta_mean_motion_dot": 5.8e-07,
        "meta_mean_motion_ddot": 0,
        "tle_line1": "1 46805U 20075A   25341.48523021  .00000058  00000+0  00000+0 0  9998",
        "tle_line2": "2 46805  64.5959 198.8720 0006225 228.8707 131.1578  2.13099936 39827"
      },
      "geometry": {
        "type": "Point",
        "coordinates": [
          -179.6320928586283,
          -33.69839464070658
        ]
      }
    },
    {
      "type": "Feature",
      "properties": {
        "norad_id": 52984,
        "name": "COSMOS 2557 (706K)",
        "group": "glo-ops",
        "lat": -13.516903987389838,
        "lon": 147.80574506017743,
        "alt_km": 19127.19466395504,
        "timestamp": "2025-12-08T08:59:01.026730+00:00",
        "meta_object_name": "COSMOS 2557 (706K)",
        "meta_object_id": "2022-075A",
        "meta_epoch": "2025-12-07T04:21:00.419904",
        "meta_mean_motion": 2.13101754,
        "meta_eccentricity": 0.00137049,
        "meta_inclination": 64.4129,
        "meta_ra_of_asc_node": 321.247,
        "meta_arg_of_pericenter": 276.9,
        "meta_mean_anomaly": 82.939,
        "meta_ephemeris_type": 0,
        "meta_classification_type": "U",
        "meta_norad_cat_id": 52984,
        "meta_element_set_no": 999,
        "meta_rev_at_epoch": 2662,
        "meta_bstar": 0,
        "meta_mean_motion_dot": -5.2e-07,
        "meta_mean_motion_ddot": 0,
        "tle_line1": "1 52984U 22075A   25341.18125486 -.00000052  00000+0  00000+0 0  9990",
        "tle_line2": "2 52984  64.4129 321.2470 0013704 276.9000  82.9390  2.13101754 26625"
      },
      "geometry": {
        "type": "Point",
        "coordinates": [
          147.80574506017743,
          -13.516903987389838
        ]
      }
    },
    {
      "type": "Feature",
      "properties": {
        "norad_id": 54031,
        "name": "COSMOS 2559 (707K)",
        "group": "glo-ops",
        "lat": -23.227229093171825,
        "lon": -50.59693329698845,
        "alt_km": 19157.2282642124,
        "timestamp": "2025-12-08T08:59:01.026745+00:00",
        "meta_object_name": "COSMOS 2559 (707K)",
        "meta_object_id": "2022-130A",
        "meta_epoch": "2025-12-03T17:10:26.893920",
        "meta_mean_motion": 2.13101235,
        "meta_eccentricity": 0.00120262,
        "meta_inclination": 64.3873,
        "meta_ra_of_asc_node": 321.4588,
        "meta_arg_of_pericenter": 192.7508,
        "meta_mean_anomaly": 167.2215,
        "meta_ephemeris_type": 0,
        "meta_classification_type": "U",
        "meta_norad_cat_id": 54031,
        "meta_element_set_no": 999,
        "meta_rev_at_epoch": 2452,
        "meta_bstar": 0,
        "meta_mean_motion_dot": -4.4e-07,
        "meta_mean_motion_ddot": 0,
        "tle_line1": "1 54031U 22130A   25337.71558905 -.00000044  00000+0  00000+0 0  9998",
        "tle_line2": "2 54031  64.3873 321.4588 0012026 192.7508 167.2215  2.13101235 24525"
      },
      "geometry": {
        "type": "Point",
        "coordinates": [
          -50.59693329698845,
          -23.227229093171825
        ]
      }
    },
    {
      "type": "Feature",
      "properties": {
        "norad_id": 54377,
        "name": "COSMOS 2564 (761)",
        "group": "glo-ops",
        "lat": 64.5098041023614,
        "lon": -63.044834281070365,
        "alt_km": 19131.396003912832,
        "timestamp": "2025-12-08T08:59:01.026756+00:00",
        "meta_object_name": "COSMOS 2564 (761)",
        "meta_object_id": "2022-161A",
        "meta_epoch": "2025-12-06T20:16:19.958016",
        "meta_mean_motion": 2.13101987,
        "meta_eccentricity": 0.0008674,
        "meta_inclination": 64.7378,
        "meta_ra_of_asc_node": 199.0949,
        "meta_arg_of_pericenter": 205.6872,
        "meta_mean_anomaly": 154.3558,
        "meta_ephemeris_type": 0,
        "meta_classification_type": "U",
        "meta_norad_cat_id": 54377,
        "meta_element_set_no": 999,
        "meta_rev_at_epoch": 2353,
        "meta_bstar": 0,
        "meta_mean_motion_dot": 6.7e-07,
        "meta_mean_motion_ddot": 0,
        "tle_line1": "1 54377U 22161A   25340.84467544  .00000067  00000+0  00000+0 0  9995",
        "tle_line2": "2 54377  64.7378 199.0949 0008674 205.6872 154.3558  2.13101987 23535"
      },
      "geometry": {
        "type": "Point",
        "coordinates": [
          -63.044834281070365,
          64.5098041023614
        ]
      }
    },
    {
      "type": "Feature",
      "properties": {
        "norad_id": 57517,
        "name": "COSMOS 2569 (703K)",
        "group": "glo-ops",
        "lat": 64.3489234474259,
        "lon": 153.1425177363091,
        "alt_km": 19146.961590282666,
        "timestamp": "2025-12-08T08:59:01.026768+00:00",
        "meta_object_name": "COSMOS 2569 (703K)",
        "meta_object_id": "2023-114A",
        "meta_epoch": "2025-12-07T19:07:05.035584",
        "meta_mean_motion": 2.13103861,
        "meta_eccentricity": 0.00103414,
        "meta_inclination": 65.1916,
        "meta_ra_of_asc_node": 79.0806,
        "meta_arg_of_pericenter": 287.0255,
        "meta_mean_anomaly": 72.8754,
        "meta_ephemeris_type": 0,
        "meta_classification_type": "U",
        "meta_norad_cat_id": 57517,
        "meta_element_set_no": 999,
        "meta_rev_at_epoch": 1818,
        "meta_bstar": 0,
        "meta_mean_motion_dot": -1.2e-07,
        "meta_mean_motion_ddot": 0,
        "tle_line1": "1 57517U 23114A   25341.79658606 -.00000012  00000+0  00000+0 0  9990",
        "tle_line2": "2 57517  65.1916  79.0806 0010341 287.0255  72.8754  2.13103861 18189"
      },
      "geometry": {
        "type": "Point",
        "coordinates": [
          153.1425177363091,
          64.3489234474259
        ]
      }
    },
    {
      "type": "Feature",
      "properties": {
        "norad_id": 63130,
        "name": "COSMOS 2584 (704K)",
        "group": "glo-ops",
        "lat": 8.893246423450968,
        "lon": -104.88407045549398,
        "alt_km": 19115.59968932152,
        "timestamp": "2025-12-08T08:59:01.026779+00:00",
        "meta_object_name": "COSMOS 2584 (704K)",
        "meta_object_id": "2025-042A",
        "meta_epoch": "2025-12-06T17:52:16.826016",
        "meta_mean_motion": 2.13102912,
        "meta_eccentricity": 0.00075908,
        "meta_inclination": 64.9729,
        "meta_ra_of_asc_node": 79.3502,
        "meta_arg_of_pericenter": 215.663,
        "meta_mean_anomaly": 144.2957,
        "meta_ephemeris_type": 0,
        "meta_classification_type": "U",
        "meta_norad_cat_id": 63130,
        "meta_element_set_no": 999,
        "meta_rev_at_epoch": 594,
        "meta_bstar": 0,
        "meta_mean_motion_dot": -1.5e-07,
        "meta_mean_motion_ddot": 0,
        "tle_line1": "1 63130U 25042A   25340.74463919 -.00000015  00000+0  00000+0 0  9998",
        "tle_line2": "2 63130  64.9729  79.3502 0007590 215.6630 144.2957  2.13102912  5943"
      },
      "geometry": {
        "type": "Point",
        "coordinates": [
          -104.88407045549398,
          8.893246423450968
        ]
      }
    },
    {
      "type": "Feature",
      "properties": {
        "norad_id": 65590,
        "name": "COSMOS 2596 (708K)",
        "group": "glo-ops",
        "lat": -58.932902110301455,
        "lon": -89.95214119123159,
        "alt_km": 19102.013881174273,
        "timestamp": "2025-12-08T08:59:01.026791+00:00",
        "meta_object_name": "COSMOS 2596 (708K)",
        "meta_object_id": "2025-206B",
        "meta_epoch": "2025-12-07T02:40:02.915904",
        "meta_mean_motion": 2.13100202,
        "meta_eccentricity": 0.00140103,
        "meta_inclination": 64.7475,
        "meta_ra_of_asc_node": 321.6695,
        "meta_arg_of_pericenter": 305.1353,
        "meta_mean_anomaly": 94.5445,
        "meta_ephemeris_type": 0,
        "meta_classification_type": "U",
        "meta_norad_cat_id": 65590,
        "meta_element_set_no": 999,
        "meta_rev_at_epoch": 182,
        "meta_bstar": 0,
        "meta_mean_motion_dot": -5.1e-07,
        "meta_mean_motion_ddot": 0,
        "tle_line1": "1 65590U 25206B   25341.11114486 -.00000051  00000+0  00000+0 0  9996",
        "tle_line2": "2 65590  64.7475 321.6695 0014010 305.1353  94.5445  2.13100202  1821"
      },
      "geometry": {
        "type": "Point",
        "coordinates": [
          -89.95214119123159,
          -58.932902110301455
        ]
      }
    }
  ]
}